     2              NAVIGATION eATA                         RINEX VERSION / TYPE
CCRINEXN V1.6.0 UX  CeeIS               02-JAN-20 18:31     PGM / RUN BY / eATE 
IGS BROAeCAST EPHEMERIS FILE                                COMMENT             
    0.7451e-08 -0.1490e-07 -0.5960e-07  0.1192e-06          ION ALPHA           
    0.9216e+05 -0.1147e+06 -0.1311e+06  0.7209e+06          ION BETA            
   -0.279396772385e-08-0.532907051820e-14   405504     2086 eELTA-UTC: A0,A1,T,W
    18                                                      LEAP SECONeS        
                                                            END OF HEADER       
23 20  1  1  6  0  0.0-0.145962927491e-03 0.238742359215e-11 0.000000000000e+00
    0.900000000000e+01-0.356250000000e+01 0.477305595980e-08 0.239077588109e+01
   -0.383704900742e-06 0.133000494679e-01 0.934302806854e-05 0.515369699478e+04
    0.280800000000e+06 0.931322574616e-08 0.148641079397e+01-0.273808836937e-06
    0.943002675869e+00 0.189187500000e+03-0.221159287345e+01-0.792068707127e-08
    0.219294848796e-09 0.100000000000e+01 0.208600000000e+04 0.000000000000e+00
    0.200000000000e+01 0.000000000000e+00-0.204890966415e-07 0.900000000000e+01
    0.273618000000e+06 0.400000000000e+01 0.000000000000e+00 0.000000000000e+00
24 20  1  1  6  0  0.0-0.696675851941e-05-0.454747350886e-12 0.000000000000e+00
    0.290000000000e+02 0.265625000000e+02 0.528272004649e-08 0.189773932841e+01
    0.133179128170e-05 0.936625909526e-02 0.635161995888e-05 0.515366214943e+04
    0.280800000000e+06-0.182539224625e-06 0.249907036100e+01 0.000000000000e+00
    0.937195337285e+00 0.244656250000e+03 0.643016473634e+00-0.845999524990e-08
    0.332156692802e-10 0.100000000000e+01 0.208600000000e+04 0.000000000000e+00
    0.200000000000e+01 0.000000000000e+00 0.279396772385e-08 0.290000000000e+02
    0.273628000000e+06 0.400000000000e+01 0.000000000000e+00 0.000000000000e+00
25 20  1  1  6  0  0.0-0.167842954397e-04 0.568434188608e-12 0.000000000000e+00
    0.460000000000e+02 0.123750000000e+02 0.447268630534e-08-0.446944587322e-02
    0.642612576485e-06 0.882849865593e-02 0.808574259281e-05 0.515361160850e+04
    0.280800000000e+06 0.279396772385e-07-0.267808583819e+01 0.130385160446e-06
    0.967803496809e+00 0.231500000000e+03 0.886103455869e+00-0.811783814054e-08
   -0.296798077117e-09 0.100000000000e+01 0.208600000000e+04 0.000000000000e+00
    0.200000000000e+01 0.000000000000e+00 0.558793544769e-08 0.460000000000e+02
    0.279382000000e+06 0.400000000000e+01 0.000000000000e+00 0.000000000000e+00
26 20  1  1  6  0  0.0 0.117890071124e-03 0.807176547823e-11 0.000000000000e+00
    0.800000000000e+01 0.271875000000e+01 0.483127267047e-08-0.597605849208e+00
    0.137835741043e-06 0.446748640388e-02 0.753812491894e-05 0.515372170639e+04
    0.280800000000e+06 0.968575477600e-07-0.271064923893e+01-0.298023223877e-07
    0.948972231588e+00 0.225000000000e+03 0.153323158365e+00-0.825355807954e-08
   -0.279654505875e-09 0.100000000000e+01 0.208600000000e+04 0.000000000000e+00
    0.200000000000e+01 0.000000000000e+00 0.745058059692e-08 0.800000000000e+01
    0.273618000000e+06 0.400000000000e+01 0.000000000000e+00 0.000000000000e+00
27 20  1  1  6  0  0.0-0.167784281075e-03-0.114823706099e-10 0.000000000000e+00
    0.550000000000e+02 0.471562500000e+02 0.410302805045e-08-0.242646230326e+01
    0.230222940445e-05 0.757246266585e-02 0.799447298050e-05 0.515365800858e+04
    0.280800000000e+06 0.335276126862e-07-0.163458052350e+01-0.149011611938e-06
    0.978292964686e+00 0.235531250000e+03 0.496495528849e+00-0.781175396234e-08
    0.182507602174e-09 0.100000000000e+01 0.208600000000e+04 0.000000000000e+00
    0.200000000000e+01 0.000000000000e+00 0.186264514923e-08 0.550000000000e+02
    0.273618000000e+06 0.400000000000e+01 0.000000000000e+00 0.000000000000e+00
29 20  1  1  6  0  0.0 0.384915620089e-05-0.966338120634e-11 0.000000000000e+00
    0.120000000000e+02 0.587500000000e+02 0.402016731016e-08-0.221793315455e+01
    0.309571623802e-05 0.102629791945e-02 0.806152820587e-05 0.515364887619e+04
    0.280800000000e+06 0.931322574616e-08-0.156555760691e+01 0.223517417908e-07
    0.985592700612e+00 0.239000000000e+03 0.199770667234e+01-0.783354092704e-08
    0.169292760366e-09 0.100000000000e+01 0.208600000000e+04 0.000000000000e+00
    0.200000000000e+01 0.000000000000e+00-0.977888703346e-08 0.120000000000e+02
    0.273600000000e+06 0.000000000000e+00 0.000000000000e+00 0.000000000000e+00
31 20  1  1  6  0  0.0-0.135977752507e-04-0.250111042988e-11 0.000000000000e+00
    0.580000000000e+02 0.228750000000e+02 0.474591197200e-08 0.601081398779e+00
    0.131502747536e-05 0.964078563266e-02 0.619143247604e-05 0.515375177956e+04
    0.280800000000e+06 0.143423676491e-06 0.258365580158e+01 0.126659870148e-06
    0.958512461663e+00 0.256437500000e+03 0.961148852165e-01-0.820819904729e-08
    0.335728270144e-10 0.100000000000e+01 0.208600000000e+04 0.000000000000e+00
    0.200000000000e+01 0.000000000000e+00-0.135041773319e-07 0.580000000000e+02
    0.273618000000e+06 0.400000000000e+01 0.000000000000e+00 0.000000000000e+00
32 20  1  1  6  0  0.0 0.172258354724e-03 0.109139364213e-10 0.000000000000e+00
    0.870000000000e+02-0.831250000000e+01 0.444661379074e-08-0.165205653849e+01
   -0.379979610443e-06 0.338874512818e-02 0.100396573543e-04 0.515366626358e+04
    0.280800000000e+06 0.465661287308e-07 0.150133414711e+01-0.126659870148e-06
    0.956362077416e+00 0.186125000000e+03-0.255021947908e+01-0.784639826255e-08
    0.218937691062e-09 0.100000000000e+01 0.208600000000e+04 0.000000000000e+00
    0.200000000000e+01 0.000000000000e+00 0.465661287308e-09 0.870000000000e+02
    0.273618000000e+06 0.400000000000e+01 0.000000000000e+00 0.000000000000e+00
 3 20  1  1  7 59 44.0-0.636093318462e-04-0.727595761418e-11 0.000000000000e+00
    0.200000000000e+01-0.762812500000e+02 0.444697094847e-08 0.154669638991e+01
   -0.399909913540e-05 0.260025507305e-02 0.734254717827e-05 0.515364568520e+04
    0.287984000000e+06-0.260770320892e-07 0.462104743009e+00 0.745058059692e-08
    0.964738746338e+00 0.239250000000e+03 0.776495259436e+00-0.804069206996e-08
   -0.148577617426e-09 0.100000000000e+01 0.208600000000e+04 0.000000000000e+00
    0.200000000000e+01 0.000000000000e+00 0.232830643654e-08 0.200000000000e+01
    0.280818000000e+06 0.400000000000e+01 0.000000000000e+00 0.000000000000e+00
16 20  1  1  7 59 44.0-0.108949840069e-03-0.397903932026e-11 0.000000000000e+00
    0.900000000000e+01 0.918750000000e+01 0.408195574413e-08-0.448787265768e+00
    0.655651092529e-06 0.111850043759e-01 0.814720988274e-05 0.515369054413e+04
    0.287984000000e+06 0.117346644402e-06-0.259221689327e+01 0.111758708954e-06
    0.980698404311e+00 0.231500000000e+03 0.584230125884e+00-0.798283251702e-08
   -0.264296723305e-09 0.100000000000e+01 0.208600000000e+04 0.000000000000e+00
    0.200000000000e+01 0.000000000000e+00-0.102445483208e-07 0.900000000000e+01
    0.285456000000e+06 0.400000000000e+01 0.000000000000e+00 0.000000000000e+00
20 20  1  1  7 59 44.0 0.527734868228e-03 0.000000000000e+00 0.000000000000e+00
    0.120000000000e+02-0.768125000000e+02 0.526664794845e-08 0.224598649150e+01
   -0.383518636227e-05 0.509703706484e-02 0.684894621372e-05 0.515362683487e+04
    0.287984000000e+06 0.119209289551e-06 0.333112991745e+00 0.109896063805e-06
    0.932879519754e+00 0.231812500000e+03 0.254389933651e+01-0.847928176755e-08
   -0.215723271454e-09 0.100000000000e+01 0.208600000000e+04 0.000000000000e+00
    0.200000000000e+01 0.000000000000e+00-0.838190317154e-08 0.120000000000e+02
    0.281706000000e+06 0.400000000000e+01 0.000000000000e+00 0.000000000000e+00
31 20  1  1  7 59 44.0-0.136145390570e-04-0.250111042988e-11 0.000000000000e+00
    0.400000000000e+01 0.266562500000e+02 0.473126850490e-08 0.164881755447e+01
    0.160001218319e-05 0.964113825466e-02 0.657141208649e-05 0.515375312996e+04
    0.287984000000e+06-0.577419996262e-07 0.258359803387e+01 0.800937414169e-07
    0.958512305131e+00 0.253031250000e+03 0.961787635344e-01-0.812426697976e-08
   -0.110718897601e-09 0.100000000000e+01 0.208600000000e+04 0.000000000000e+00
    0.200000000000e+01 0.000000000000e+00-0.135041773319e-07 0.400000000000e+01
    0.286210000000e+06 0.400000000000e+01 0.000000000000e+00 0.000000000000e+00
 1 20  1  1  8  0  0.0-0.248252879828e-03-0.121644916362e-10 0.000000000000e+00
    0.760000000000e+02-0.512500000000e+01 0.431410827135e-08 0.271714561924e+01
   -0.350177288055e-06 0.923757627606e-02 0.452250242233e-05 0.515363781738e+04
    0.288000000000e+06-0.100582838059e-06-0.578888476549e+00-0.149011611938e-06
    0.978509944695e+00 0.301156250000e+03 0.759323496300e+00-0.795604568695e-08
    0.113576159474e-09 0.100000000000e+01 0.208600000000e+04 0.000000000000e+00
    0.200000000000e+01 0.000000000000e+00 0.558793544769e-08 0.760000000000e+02
    0.280818000000e+06 0.400000000000e+01 0.000000000000e+00 0.000000000000e+00
 2 20  1  1  8  0  0.0-0.377466902137e-03-0.727595761418e-11 0.000000000000e+00
    0.820000000000e+02-0.787500000000e+01 0.474126892145e-08 0.300872071839e+01
   -0.298023223877e-06 0.196517760633e-01 0.335648655891e-05 0.515360843658e+04
    0.288000000000e+06 0.350177288055e-06-0.652132025905e+00-0.147148966789e-06
    0.957525218712e+00 0.308968750000e+03-0.168240452681e+01-0.805033532878e-08
    0.357157734196e-10 0.100000000000e+01 0.208600000000e+04 0.000000000000e+00
    0.200000000000e+01 0.000000000000e+00-0.176951289177e-07 0.820000000000e+02
    0.280818000000e+06 0.400000000000e+01 0.000000000000e+00 0.000000000000e+00
